IRIDIUM 152             
1 43479U 18047D   26062.19322088  .00000206  00000+0  66485-4 0  9996
2 43479  86.3986 132.6576 0002276  92.6884 267.4572 14.34218251407299
IRIDIUM 147             
1 43480U 18047E   26062.12979409  .00000114  00000+0  33736-4 0  9997
2 43480  86.3988 132.6873 0002211  99.3794 260.7652 14.34218388407281
IRIDIUM 110             
1 43481U 18047F   26062.13613830  .00000063  00000+0  15529-4 0  9995
2 43481  86.3988 132.7733 0002556  90.2277 269.9211 14.34217861407272
IRIDIUM 162             
1 43482U 18047G   26062.15584193  .00000375  00000+0  10563-3 0  9995
2 43482  86.4510 132.7050 0002124  91.8768 268.2676 14.43281458409834
IRIDIUM 160             
1 43569U 18061A   26062.15174154  .00000121  00000+0  36103-4 0  9997
2 43569  86.3924 101.1525 0002369  92.9275 267.2192 14.34218419398174
IRIDIUM 166             
1 43570U 18061B   26062.17711166  .00000148  00000+0  45737-4 0  9993
2 43570  86.3921 101.0936 0002178  96.3759 263.7685 14.34218237398201
IRIDIUM 158             
1 43571U 18061C   26062.14539750  .00000007  00000+0 -44418-5 0  9999
2 43571  86.3929 101.1166 0002012  90.0284 270.1143 14.34216609398164
IRIDIUM 165             
1 43572U 18061D   26062.17076904  .00000114  00000+0  33591-4 0  9997
2 43572  86.3921 101.1503 0002178  96.2607 263.8837 14.34218044398199
IRIDIUM 155             
1 43573U 18061E   26062.13271330 -.00000017  00000+0 -13072-4 0  9990
2 43573  86.3920 101.0404 0001954  93.0325 267.1094 14.34217664398156
IRIDIUM 154             
1 43574U 18061F   26062.11369955  .00000292  00000+0  97330-4 0  9992
2 43574  86.3925 101.1773 0002190  98.9549 261.1895 14.34221272398206
IRIDIUM 163             
1 43575U 18061G   26062.16442708  .00000053  00000+0  11746-4 0  9998
2 43575  86.3924 101.0748 0002263  91.5304 268.6151 14.34217762398189
IRIDIUM 156             
1 43576U 18061H   26062.13905584  .00000076  00000+0  20112-4 0  9994
2 43576  86.3927 101.0924 0002017  95.1950 264.9476 14.34218045398176
IRIDIUM 164             
1 43577U 18061J   26062.12002831  .00000117  00000+0  34542-4 0  9995
2 43577  86.3924 101.1391 0002323  98.1497 261.9962 14.34218405398214
IRIDIUM 159             
1 43578U 18061K   26062.15808450 -.00000054  00000+0 -26252-4 0  9991
2 43578  86.3927 101.0620 0002267  92.6155 267.5300 14.34217471398185
IRIDIUM 180             
1 43922U 19002A   26062.01804313  .00000061  00000+0  14761-4 0  9997
2 43922  86.3962  37.9542 0002292  86.0608 274.0849 14.34217886373774
IRIDIUM 176             
1 43923U 19002B   26061.92545438  .00001251  00000+0  19442-3 0  9999
2 43923  86.6082  37.9510 0002342  87.5035 272.6450 14.72261761383611
IRIDIUM 168             
1 43924U 19002C   26061.94192931  .00000365  00000+0  12334-3 0  9996
2 43924  86.3962  38.0603 0002219  86.7744 273.3705 14.34220100373746
