[{"OBJECT_NAME":"IRIDIUM 152","OBJECT_ID":"2018-047D","EPOCH":"2026-03-03T04:38:14.284032","MEAN_MOTION":14.34218251,"ECCENTRICITY":0.0002276,"INCLINATION":86.3986,"RA_OF_ASC_NODE":132.6576,"ARG_OF_PERICENTER":92.6884,"MEAN_ANOMALY":267.4572,"EPHEMERIS_TYPE":0,"CLASSIFICATION_TYPE":"U","NORAD_CAT_ID":43479,"ELEMENT_SET_NO":999,"REV_AT_EPOCH":40729,"BSTAR":6.6485e-5,"MEAN_MOTION_DOT":2.06e-6,"MEAN_MOTION_DDOT":0},{"OBJECT_NAME":"IRIDIUM 147","OBJECT_ID":"2018-047E","EPOCH":"2026-03-03T03:06:54.209376","MEAN_MOTION":14.34218388,"ECCENTRICITY":0.0002211,"INCLINATION":86.3988,"RA_OF_ASC_NODE":132.6873,"ARG_OF_PERICENTER":99.3794,"MEAN_ANOMALY":260.7652,"EPHEMERIS_TYPE":0,"CLASSIFICATION_TYPE":"U","NORAD_CAT_ID":43480,"ELEMENT_SET_NO":999,"REV_AT_EPOCH":40728,"BSTAR":3.3736e-5,"MEAN_MOTION_DOT":1.14e-6,"MEAN_MOTION_DDOT":0},{"OBJECT_NAME":"IRIDIUM 110","OBJECT_ID":"2018-047F","EPOCH":"2026-03-03T03:16:02.349120","MEAN_MOTION":14.34217861,"ECCENTRICITY":0.0002556,"INCLINATION":86.3988,"RA_OF_ASC_NODE":132.7733,"ARG_OF_PERICENTER":90.2277,"MEAN_ANOMALY":269.9211,"EPHEMERIS_TYPE":0,"CLASSIFICATION_TYPE":"U","NORAD_CAT_ID":43481,"ELEMENT_SET_NO":999,"REV_AT_EPOCH":40727,"BSTAR":1.5529e-5,"MEAN_MOTION_DOT":6.3e-7,"MEAN_MOTION_DDOT":0},{"OBJECT_NAME":"IRIDIUM 162","OBJECT_ID":"2018-047G","EPOCH":"2026-03-03T03:44:24.742752","MEAN_MOTION":14.43281458,"ECCENTRICITY":0.0002124,"INCLINATION":86.451,"RA_OF_ASC_NODE":132.705,"ARG_OF_PERICENTER":91.8768,"MEAN_ANOMALY":268.2676,"EPHEMERIS_TYPE":0,"CLASSIFICATION_TYPE":"U","NORAD_CAT_ID":43482,"ELEMENT_SET_NO":999,"REV_AT_EPOCH":40983,"BSTAR":0.00010563,"MEAN_MOTION_DOT":3.75e-6,"MEAN_MOTION_DDOT":0},{"OBJECT_NAME":"IRIDIUM 160","OBJECT_ID":"2018-061A","EPOCH":"2026-03-03T03:38:30.469056","MEAN_MOTION":14.34218419,"ECCENTRICITY":0.0002369,"INCLINATION":86.3924,"RA_OF_ASC_NODE":101.1525,"ARG_OF_PERICENTER":92.9275,"MEAN_ANOMALY":267.2192,"EPHEMERIS_TYPE":0,"CLASSIFICATION_TYPE":"U","NORAD_CAT_ID":43569,"ELEMENT_SET_NO":999,"REV_AT_EPOCH":39817,"BSTAR":3.6103e-5,"MEAN_MOTION_DOT":1.21e-6,"MEAN_MOTION_DDOT":0},{"OBJECT_NAME":"IRIDIUM 166","OBJECT_ID":"2018-061B","EPOCH":"2026-03-03T04:15:02.447424","MEAN_MOTION":14.34218237,"ECCENTRICITY":0.0002178,"INCLINATION":86.3921,"RA_OF_ASC_NODE":101.0936,"ARG_OF_PERICENTER":96.3759,"MEAN_ANOMALY":263.7685,"EPHEMERIS_TYPE":0,"CLASSIFICATION_TYPE":"U","NORAD_CAT_ID":43570,"ELEMENT_SET_NO":999,"REV_AT_EPOCH":39820,"BSTAR":4.5737e-5,"MEAN_MOTION_DOT":1.48e-6,"MEAN_MOTION_DDOT":0},{"OBJECT_NAME":"IRIDIUM 158","OBJECT_ID":"2018-061C","EPOCH":"2026-03-03T03:29:22.344000","MEAN_MOTION":14.34216609,"ECCENTRICITY":0.0002012,"INCLINATION":86.3929,"RA_OF_ASC_NODE":101.1166,"ARG_OF_PERICENTER":90.0284,"MEAN_ANOMALY":270.1143,"EPHEMERIS_TYPE":0,"CLASSIFICATION_TYPE":"U","NORAD_CAT_ID":43571,"ELEMENT_SET_NO":999,"REV_AT_EPOCH":39816,"BSTAR":-4.4418e-6,"MEAN_MOTION_DOT":7.0e-8,"MEAN_MOTION_DDOT":0},{"OBJECT_NAME":"IRIDIUM 165","OBJECT_ID":"2018-061D","EPOCH":"2026-03-03T04:05:54.445056","MEAN_MOTION":14.34218044,"ECCENTRICITY":0.0002178,"INCLINATION":86.3921,"RA_OF_ASC_NODE":101.1503,"ARG_OF_PERICENTER":96.2607,"MEAN_ANOMALY":263.8837,"EPHEMERIS_TYPE":0,"CLASSIFICATION_TYPE":"U","NORAD_CAT_ID":43572,"ELEMENT_SET_NO":999,"REV_AT_EPOCH":39819,"BSTAR":3.3591e-5,"MEAN_MOTION_DOT":1.14e-6,"MEAN_MOTION_DDOT":0},{"OBJECT_NAME":"IRIDIUM 155","OBJECT_ID":"2018-061E","EPOCH":"2026-03-03T03:11:06.429120","MEAN_MOTION":14.34217664,"ECCENTRICITY":0.0001954,"INCLINATION":86.392,"RA_OF_ASC_NODE":101.0404,"ARG_OF_PERICENTER":93.0325,"MEAN_ANOMALY":267.1094,"EPHEMERIS_TYPE":0,"CLASSIFICATION_TYPE":"U","NORAD_CAT_ID":43573,"ELEMENT_SET_NO":999,"REV_AT_EPOCH":39815,"BSTAR":-1.3072e-5,"MEAN_MOTION_DOT":-1.7e-7,"MEAN_MOTION_DDOT":0},{"OBJECT_NAME":"IRIDIUM 154","OBJECT_ID":"2018-061F","EPOCH":"2026-03-03T02:43:43.641120","MEAN_MOTION":14.34221272,"ECCENTRICITY":0.000219,"INCLINATION":86.3925,"RA_OF_ASC_NODE":101.1773,"ARG_OF_PERICENTER":98.9549,"MEAN_ANOMALY":261.1895,"EPHEMERIS_TYPE":0,"CLASSIFICATION_TYPE":"U","NORAD_CAT_ID":43574,"ELEMENT_SET_NO":999,"REV_AT_EPOCH":39820,"BSTAR":9.733e-5,"MEAN_MOTION_DOT":2.92e-6,"MEAN_MOTION_DDOT":0},{"OBJECT_NAME":"IRIDIUM 163","OBJECT_ID":"2018-061G","EPOCH":"2026-03-03T03:56:46.499712","MEAN_MOTION":14.34217762,"ECCENTRICITY":0.0002263,"INCLINATION":86.3924,"RA_OF_ASC_NODE":101.0748,"ARG_OF_PERICENTER":91.5304,"MEAN_ANOMALY":268.6151,"EPHEMERIS_TYPE":0,"CLASSIFICATION_TYPE":"U","NORAD_CAT_ID":43575,"ELEMENT_SET_NO":999,"REV_AT_EPOCH":39818,"BSTAR":1.1746e-5,"MEAN_MOTION_DOT":5.3e-7,"MEAN_MOTION_DDOT":0},{"OBJECT_NAME":"IRIDIUM 156","OBJECT_ID":"2018-061H","EPOCH":"2026-03-03T03:20:14.424576","MEAN_MOTION":14.34218045,"ECCENTRICITY":0.0002017,"INCLINATION":86.3927,"RA_OF_ASC_NODE":101.0924,"ARG_OF_PERICENTER":95.195,"MEAN_ANOMALY":264.9476,"EPHEMERIS_TYPE":0,"CLASSIFICATION_TYPE":"U","NORAD_CAT_ID":43576,"ELEMENT_SET_NO":999,"REV_AT_EPOCH":39817,"BSTAR":2.0112e-5,"MEAN_MOTION_DOT":7.6e-7,"MEAN_MOTION_DDOT":0},{"OBJECT_NAME":"IRIDIUM 164","OBJECT_ID":"2018-061J","EPOCH":"2026-03-03T02:52:50.445984","MEAN_MOTION":14.34218405,"ECCENTRICITY":0.0002323,"INCLINATION":86.3924,"RA_OF_ASC_NODE":101.1391,"ARG_OF_PERICENTER":98.1497,"MEAN_ANOMALY":261.9962,"EPHEMERIS_TYPE":0,"CLASSIFICATION_TYPE":"U","NORAD_CAT_ID":43577,"ELEMENT_SET_NO":999,"REV_AT_EPOCH":39821,"BSTAR":3.4542e-5,"MEAN_MOTION_DOT":1.17e-6,"MEAN_MOTION_DDOT":0},{"OBJECT_NAME":"IRIDIUM 159","OBJECT_ID":"2018-061K","EPOCH":"2026-03-03T03:47:38.500800","MEAN_MOTION":14.34217471,"ECCENTRICITY":0.0002267,"INCLINATION":86.3927,"RA_OF_ASC_NODE":101.062,"ARG_OF_PERICENTER":92.6155,"MEAN_ANOMALY":267.53,"EPHEMERIS_TYPE":0,"CLASSIFICATION_TYPE":"U","NORAD_CAT_ID":43578,"ELEMENT_SET_NO":999,"REV_AT_EPOCH":39818,"BSTAR":-2.6252e-5,"MEAN_MOTION_DOT":-5.4e-7,"MEAN_MOTION_DDOT":0},{"OBJECT_NAME":"IRIDIUM 180","OBJECT_ID":"2019-002A","EPOCH":"2026-03-03T00:25:58.926432","MEAN_MOTION":14.34217886,"ECCENTRICITY":0.0002292,"INCLINATION":86.3962,"RA_OF_ASC_NODE":37.9542,"ARG_OF_PERICENTER":86.0608,"MEAN_ANOMALY":274.0849,"EPHEMERIS_TYPE":0,"CLASSIFICATION_TYPE":"U","NORAD_CAT_ID":43922,"ELEMENT_SET_NO":999,"REV_AT_EPOCH":37377,"BSTAR":1.4761e-5,"MEAN_MOTION_DOT":6.1e-7,"MEAN_MOTION_DDOT":0},{"OBJECT_NAME":"IRIDIUM 176","OBJECT_ID":"2019-002B","EPOCH":"2026-03-02T22:12:39.258432","MEAN_MOTION":14.72261761,"ECCENTRICITY":0.0002342,"INCLINATION":86.6082,"RA_OF_ASC_NODE":37.951,"ARG_OF_PERICENTER":87.5035,"MEAN_ANOMALY":272.645,"EPHEMERIS_TYPE":0,"CLASSIFICATION_TYPE":"U","NORAD_CAT_ID":43923,"ELEMENT_SET_NO":999,"REV_AT_EPOCH":38361,"BSTAR":0.00019442,"MEAN_MOTION_DOT":1.251e-5,"MEAN_MOTION_DDOT":0},{"OBJECT_NAME":"IRIDIUM 168","OBJECT_ID":"2019-002C","EPOCH":"2026-03-02T22:36:22.692384","MEAN_MOTION":14.342201,"ECCENTRICITY":0.0002219,"INCLINATION":86.3962,"RA_OF_ASC_NODE":38.0603,"ARG_OF_PERICENTER":86.7744,"MEAN_ANOMALY":273.3705,"EPHEMERIS_TYPE":0,"CLASSIFICATION_TYPE":"U","NORAD_CAT_ID":43924,"ELEMENT_SET_NO":999,"REV_AT_EPOCH":37374,"BSTAR":0.00012334,"MEAN_MOTION_DOT":3.65e-6,"MEAN_MOTION_DDOT":0}]
